     3.00           N                   E                   RINEX VERSION / TYPE
BRD_USR             ESA                 20190114 021746  UTCPGM / RUN BY / DATE
 GAL   3.7500E+01  1.1719E-01 -6.1035E-04  0.0000E+00       IONOSPHERIC CORR
GAUT  2.7939677238E-09-1.776356839E-15      0 2036 GSTB   0 TIME SYSTEM CORR
GPGA -4.9476511776E-10-6.217248938E-15  86400 2036 GSTB   0 TIME SYSTEM CORR
                                                            END OF HEADER
E19 2019 01 14 00 20 00-9.142153430730E-06 2.273736754432E-13 0.000000000000E+00
     1.800000000000E+01-4.128125000000E+01 3.092271662670E-09 1.032449739939E+00
    -1.886859536171E-06 1.366833457723E-04 1.104176044464E-05 5.440619245529E+03
     8.760000000000E+04 5.215406417847E-08 1.117060439262E+00 1.303851604462E-08
     9.582205114905E-01 1.009687500000E+02 2.386010756068E+00-5.547731085268E-09
    -1.128618440060E-10 5.210000000000E+02 2.036000000000E+03 0.000000000000E+00
     3.120000000000E+00 0.000000000000E+00-8.614733815193E-09-8.847564458847E-09
     8.861500000000E+04 0.000000000000E+00 0.000000000000E+00 0.000000000000E+00
E30 2019 01 14 00 20 00 5.190597381443E-03-3.045386165468E-11 0.000000000000E+00
     1.800000000000E+01 2.912500000000E+01 3.012625487944E-09 2.998351218575E+00
     1.281499862671E-06 3.142671193928E-04 5.148351192474E-06 5.440614168167E+03
     8.760000000000E+04-1.676380634308E-08-3.066901169361E+00-6.332993507385E-08
     9.876569701857E-01 2.446875000000E+02 6.053118535769E-01-5.640592096159E-09
    -1.550064566411E-10 2.580000000000E+02 2.036000000000E+03 0.000000000000E+00
     3.120000000000E+00 0.000000000000E+00-3.026798367500E-09 0.000000000000E+00
     8.875000000000E+04 0.000000000000E+00 0.000000000000E+00 0.000000000000E+00
E31 2019 01 14 00 20 00 9.333002963103E-04-9.720224625198E-12 0.000000000000E+00
     1.800000000000E+01 3.768750000000E+01 3.046912630427E-09 2.027696017518E+00
     1.711770892143E-06 2.183982869610E-04 4.816800355911E-06 5.440620698929E+03
     8.760000000000E+04-2.421438694000E-08-3.072945012060E+00 3.725290298462E-09
     9.896437080271E-01 2.530000000000E+02-1.546073953375E+00-5.663450191147E-09
    -1.107188976008E-10 2.580000000000E+02 2.036000000000E+03 0.000000000000E+00
     3.120000000000E+00 0.000000000000E+00-2.328306436539E-10 0.000000000000E+00
     8.875000000000E+04 0.000000000000E+00 0.000000000000E+00 0.000000000000E+00
E26 2019 01 13 23 00 00 5.022918339819E-03-4.334310688137E-11 0.000000000000E+00
     1.000000000000E+01 1.559375000000E+01 2.896549224330E-09 1.340289468665E+00
     6.016343832016E-07 3.170485142618E-04 7.940456271172E-06 5.440606546402E+03
     8.280000000000E+04 5.215406417847E-08-9.813760235762E-01 2.421438694000E-08
     9.783187573946E-01 1.788437500000E+02-1.988303166591E+00-5.607376426879E-09
     2.167947446570E-10 5.210000000000E+02 2.036000000000E+03 0.000000000000E+00
     3.120000000000E+00 0.000000000000E+00 1.164153218269E-09 1.396983861923E-09
     8.879500000000E+04 0.000000000000E+00 0.000000000000E+00 0.000000000000E+00
E26 2019 01 13 23 00 00 5.022917990573E-03-4.334310688137E-11 0.000000000000E+00
     1.000000000000E+01 1.559375000000E+01 2.896549224330E-09 1.340289468665E+00
     6.016343832016E-07 3.170485142618E-04 7.940456271172E-06 5.440606546402E+03
     8.280000000000E+04 5.215406417847E-08-9.813760235762E-01 2.421438694000E-08
     9.783187573946E-01 1.788437500000E+02-1.988303166591E+00-5.607376426879E-09
     2.167947446570E-10 2.580000000000E+02 2.036000000000E+03 0.000000000000E+00
     3.120000000000E+00 0.000000000000E+00 1.164153218269E-09 0.000000000000E+00
     8.880000000000E+04 0.000000000000E+00 0.000000000000E+00 0.000000000000E+00
E31 2019 01 14 00 20 00 9.333002963103E-04-9.720224625198E-12 0.000000000000E+00
     1.800000000000E+01 3.768750000000E+01 3.046912630427E-09 2.027696017518E+00
     1.711770892143E-06 2.183982869610E-04 4.816800355911E-06 5.440620698929E+03
     8.760000000000E+04-2.421438694000E-08-3.072945012060E+00 3.725290298462E-09
     9.896437080271E-01 2.530000000000E+02-1.546073953375E+00-5.663450191147E-09
    -1.107188976008E-10 5.210000000000E+02 2.036000000000E+03 0.000000000000E+00
     3.120000000000E+00 0.000000000000E+00-2.328306436539E-10-4.656612873077E-10
     8.882500000000E+04 0.000000000000E+00 0.000000000000E+00 0.000000000000E+00
E01 2019 01 14 00 30 00-5.202252650633E-04-8.071765478235E-12 0.000000000000E+00
     1.900000000000E+01 3.400000000000E+01 3.022268746767E-09 1.911002987825E+00
     1.566484570503E-06 8.812011219561E-05 4.859641194344E-06 5.440613258362E+03
     8.820000000000E+04-1.862645149231E-09-3.070307168880E+00 1.676380634308E-08
     9.901049602458E-01 2.492812500000E+02-5.870386272351E-01-5.668093241692E-09
    -1.292910997790E-10 5.210000000000E+02 2.036000000000E+03 0.000000000000E+00
     3.120000000000E+00 0.000000000000E+00-4.656612873077E-09-5.355104804039E-09
     8.888500000000E+04 0.000000000000E+00 0.000000000000E+00 0.000000000000E+00
E03 2019 01 14 00 30 00-1.218889956363E-04-4.277467269276E-12 0.000000000000E+00
     1.900000000000E+01-3.796875000000E+01 3.139416483584E-09-3.523277653285E-01
    -1.709908246994E-06 2.618986181915E-04 9.983777999878E-06 5.440621803284E+03
     8.820000000000E+04-1.862645149231E-09 1.120308505072E+00 3.352761268616E-08
     9.524481205558E-01 1.225937500000E+02 6.238643729238E-01-5.568803391585E-09
    -6.785996949726E-12 5.210000000000E+02 2.036000000000E+03 0.000000000000E+00
     3.120000000000E+00 0.000000000000E+00-1.862645149231E-09-2.095475792885E-09
     8.888500000000E+04 0.000000000000E+00 0.000000000000E+00 0.000000000000E+00
E04 2019 01 14 00 30 00-1.995131024159E-04-7.887024366937E-12 0.000000000000E+00
     1.900000000000E+01-4.896875000000E+01 3.244420857437E-09 5.073051373295E-01
    -2.201646566391E-06 7.503794040531E-05 1.086667180061E-05 5.440617481232E+03
     8.820000000000E+04 4.284083843231E-08 1.120360671268E+00-2.421438694000E-08
     9.524913366188E-01 1.009375000000E+02 2.124959569918E+00-5.646306619906E-09
    -1.282196265764E-10 5.210000000000E+02 2.036000000000E+03 0.000000000000E+00
     3.120000000000E+00 0.000000000000E+00-8.149072527885E-09-9.080395102501E-09
     8.888500000000E+04 0.000000000000E+00 0.000000000000E+00 0.000000000000E+00
E05 2019 01 14 00 30 00 1.255056122318E-04-6.593836587854E-12 0.000000000000E+00
     1.900000000000E+01-5.343750000000E+01 3.205133506676E-09-5.629518931831E-01
    -2.434477210045E-06 1.331005478278E-04 9.750947356224E-06 5.440617410660E+03
     8.820000000000E+04-9.313225746155E-08 1.120292914754E+00-7.450580596924E-09
     9.524620416843E-01 1.277500000000E+02 1.621991389286E+00-5.544159507926E-09
    -6.500270762369E-11 5.210000000000E+02 2.036000000000E+03 0.000000000000E+00
     3.120000000000E+00 0.000000000000E+00-1.629814505577E-09-1.862645149231E-09
     8.888500000000E+04 0.000000000000E+00 0.000000000000E+00 0.000000000000E+00
E08 2019 01 14 00 30 00 6.423934188206E-03-7.446487870766E-12 0.000000000000E+00
     1.900000000000E+01-3.146875000000E+01 3.095486082277E-09-9.832132585045E-01
    -1.389533281326E-06 2.155523980036E-04 9.857118129730E-06 5.440621591568E+03
     8.820000000000E+04 1.862645149231E-09 1.111704194393E+00 2.048909664154E-08
     9.584340463280E-01 1.262500000000E+02 4.709400148048E-01-5.547016769799E-09
    -2.750114553310E-11 5.210000000000E+02 2.036000000000E+03 0.000000000000E+00
     3.120000000000E+00 0.000000000000E+00-8.381903171539E-09-9.546056389809E-09
     8.888500000000E+04 0.000000000000E+00 0.000000000000E+00 0.000000000000E+00
E12 2019 01 14 00 30 00 5.936871515587E-03 8.432721188001E-11 0.000000000000E+00
     1.900000000000E+01 3.062500000000E+00 2.795473585553E-09-7.008640858710E-01
     2.253800630569E-07 4.055742174387E-04 8.238479495049E-06 5.440606653214E+03
     8.820000000000E+04 3.539025783539E-08-9.850402018040E-01 1.862645149231E-08
     9.819757409912E-01 1.744062500000E+02-8.401230175359E-01-5.551302662610E-09
     2.564392531528E-10 5.210000000000E+02 2.036000000000E+03 0.000000000000E+00
     3.120000000000E+00 0.000000000000E+00-1.536682248116E-08-1.583248376846E-08
     8.888500000000E+04 0.000000000000E+00 0.000000000000E+00 0.000000000000E+00
E14 2019 01 14 00 30 00 6.460299831815E-03-5.599076757790E-12 0.000000000000E+00
     1.900000000000E+01 2.740625000000E+01 6.744566652559E-09-7.352013362238E-01
     2.099201083183E-06 1.662488518050E-01 1.042895019054E-05 5.289332759857E+03
     8.820000000000E+04-2.341344952583E-06-1.587146860386E+00 1.458451151848E-06
     8.826323608835E-01 1.683437500000E+02 1.457744854227E+00-1.150905082673E-08
     3.171560679661E-10 5.210000000000E+02 2.036000000000E+03 0.000000000000E+00
     3.120000000000E+00 4.550000000000E+02 3.329478204250E-08 3.725290298462E-08
     8.888500000000E+04 0.000000000000E+00 0.000000000000E+00 0.000000000000E+00
E18 2019 01 14 00 30 00 5.608232575469E-03-2.847855284926E-11 0.000000000000E+00
     1.900000000000E+01-6.950000000000E+01 4.681623579842E-09 2.375909017073E+00
    -2.933666110039E-06 1.662948449375E-01 5.144625902176E-06 5.289384931564E+03
     8.820000000000E+04 2.671033143997E-06-1.570025897081E+00-8.661299943924E-07
     8.818475155744E-01 1.872187500000E+02 1.442389170761E+00-5.717738166745E-09
    -7.500312418118E-12 5.210000000000E+02 2.036000000000E+03 0.000000000000E+00
     3.120000000000E+00 4.550000000000E+02 1.396983861923E-08 1.559965312481E-08
     8.888500000000E+04 0.000000000000E+00 0.000000000000E+00 0.000000000000E+00
